[{"OBJECT_NAME":"JY1SAT (JO-97)","OBJECT_ID":"2018-099AX","EPOCH":"2026-03-09T16:28:19.890048","MEAN_MOTION":15.30302629,"ECCENTRICITY":0.00047232,"INCLINATION":97.4249,"RA_OF_ASC_NODE":131.3625,"ARG_OF_PERICENTER":256.6795,"MEAN_ANOMALY":103.3919,"EPHEMERIS_TYPE":0,"CLASSIFICATION_TYPE":"U","NORAD_CAT_ID":43803,"ELEMENT_SET_NO":999,"REV_AT_EPOCH":39839,"BSTAR":0.00060804308,"MEAN_MOTION_DOT":0.00017774,"MEAN_MOTION_DDOT":0},{"OBJECT_NAME":"STARLINK-35209","OBJECT_ID":"2025-210Q","EPOCH":"2026-03-09T23:19:08.679072","MEAN_MOTION":15.30201113,"ECCENTRICITY":0.0001097,"INCLINATION":53.161,"RA_OF_ASC_NODE":305.813,"ARG_OF_PERICENTER":95.5188,"MEAN_ANOMALY":264.5938,"EPHEMERIS_TYPE":0,"CLASSIFICATION_TYPE":"U","NORAD_CAT_ID":65636,"ELEMENT_SET_NO":999,"REV_AT_EPOCH":2777,"BSTAR":0.0010812799,"MEAN_MOTION_DOT":0.00031803,"MEAN_MOTION_DDOT":0}]
